{"type": "FeatureCollection", "features": [ {"type": "Feature", "properties": {"norad_id": 34790, "name": "COSMOS 2251 DEB", "group": "cosmos-2251-debris", "lat": 58.663314317289405, "lon": 17.470352135432698, "alt_km": 874.1992832534042, "timestamp": "2025-12-22T20:43:46.243284+00:00", "meta": {"OBJECT_NAME": "COSMOS 2251 DEB", "OBJECT_ID": "1993-036AAT", "EPOCH": "2025-12-22T09:12:55.155744", "MEAN_MOTION": 14.2466234, "ECCENTRICITY": 0.01005704, "INCLINATION": 74.0529, "RA_OF_ASC_NODE": 226.3418, "ARG_OF_PERICENTER": 285.9399, "MEAN_ANOMALY": 251.9972, "EPHEMERIS_TYPE": 0, "CLASSIFICATION_TYPE": "U", "NORAD_CAT_ID": 34790, "ELEMENT_SET_NO": 999, "REV_AT_EPOCH": 86710, "BSTAR": 0.00052625644, "MEAN_MOTION_DOT": 1.264e-05, "MEAN_MOTION_DDOT": 0}, "tle": {"line1": "1 34790U 93036AAT 25356.38397171  .00001264  00000+0  52626-3 0  9990", "line2": "2 34790  74.0529 226.3418 0100570 285.9399 251.9972 14.24662340867105"}}, "geometry": {"type": "Point", "coordinates": [17.470352135432698, 58.663314317289405]}}, {"type": "Feature", "properties": {"norad_id": 34792, "name": "COSMOS 2251 DEB", "group": "cosmos-2251-debris", "lat": 50.05338800359099, "lon": -49.51780792767674, "alt_km": 705.166879954827, "timestamp": "2025-12-22T20:43:46.243294+00:00", "meta": {"OBJECT_NAME": "COSMOS 2251 DEB", "OBJECT_ID": "1993-036AAV", "EPOCH": "2025-12-22T04:28:07.603968", "MEAN_MOTION": 14.5602851, "ECCENTRICITY": 0.00123771, "INCLINATION": 74.0175, "RA_OF_ASC_NODE": 151.7792, "ARG_OF_PERICENTER": 246.3273, "MEAN_ANOMALY": 290.8722, "EPHEMERIS_TYPE": 0, "CLASSIFICATION_TYPE": "U", "NORAD_CAT_ID": 34792, "ELEMENT_SET_NO": 999, "REV_AT_EPOCH": 87787, "BSTAR": 0.0010753031, "MEAN_MOTION_DOT": 4.713e-05, "MEAN_MOTION_DDOT": 0}, "tle": {"line1": "1 34792U 93036AAV 25356.18619912  .00004713  00000+0  10753-2 0  9996", "line2": "2 34792  74.0175 151.7792 0012377 246.3273 290.8722 14.56028510877879"}}, "geometry": {"type": "Point", "coordinates": [-49.51780792767674, 50.05338800359099]}}, {"type": "Feature", "properties": {"norad_id": 34793, "name": "COSMOS 2251 DEB", "group": "cosmos-2251-debris", "lat": -5.83077292139612, "lon": -130.0150243725304, "alt_km": 734.6071715158423, "timestamp": "2025-12-22T20:43:46.243304+00:00", "meta": {"OBJECT_NAME": "COSMOS 2251 DEB", "OBJECT_ID": "1993-036AAW", "EPOCH": "2025-12-22T03:08:53.267712", "MEAN_MOTION": 14.38658717, "ECCENTRICITY": 0.00506999, "INCLINATION": 74.0019, "RA_OF_ASC_NODE": 233.0168, "ARG_OF_PERICENTER": 24.7364, "MEAN_ANOMALY": 137.0783, "EPHEMERIS_TYPE": 0, "CLASSIFICATION_TYPE": "U", "NORAD_CAT_ID": 34793, "ELEMENT_SET_NO": 999, "REV_AT_EPOCH": 87465, "BSTAR": 0.00020709112, "MEAN_MOTION_DOT": 6.18e-06, "MEAN_MOTION_DDOT": 0}, "tle": {"line1": "1 34793U 93036AAW 25356.13117208  .00000618  00000+0  20709-3 0  9996", "line2": "2 34793  74.0019 233.0168 0050699  24.7364 137.0783 14.38658717874656"}}, "geometry": {"type": "Point", "coordinates": [-130.0150243725304, -5.83077292139612]}}, {"type": "Feature", "properties": {"norad_id": 34796, "name": "COSMOS 2251 DEB", "group": "cosmos-2251-debris", "lat": 73.24568877507276, "lon": -54.682625730317014, "alt_km": 788.3552470015538, "timestamp": "2025-12-22T20:43:46.243314+00:00", "meta": {"OBJECT_NAME": "COSMOS 2251 DEB", "OBJECT_ID": "1993-036AAZ", "EPOCH": "2025-12-21T06:43:38.254368", "MEAN_MOTION": 14.48726221, "ECCENTRICITY": 0.010028, "INCLINATION": 74.0288, "RA_OF_ASC_NODE": 200.3317, "ARG_OF_PERICENTER": 300.5709, "MEAN_ANOMALY": 179.2041, "EPHEMERIS_TYPE": 0, "CLASSIFICATION_TYPE": "U", "NORAD_CAT_ID": 34796, "ELEMENT_SET_NO": 999, "REV_AT_EPOCH": 88151, "BSTAR": 0.00042485, "MEAN_MOTION_DOT": 1.677e-05, "MEAN_MOTION_DDOT": 0}, "tle": {"line1": "1 34796U 93036AAZ 25355.28030387  .00001677  00000+0  42485-3 0  9997", "line2": "2 34796  74.0288 200.3317 0100280 300.5709 179.2041 14.48726221881515"}}, "geometry": {"type": "Point", "coordinates": [-54.682625730317014, 73.24568877507276]}}, {"type": "Feature", "properties": {"norad_id": 34797, "name": "COSMOS 2251 DEB", "group": "cosmos-2251-debris", "lat": 5.733842867006157, "lon": 82.77459788618832, "alt_km": 800.8624922467934, "timestamp": "2025-12-22T20:43:46.243324+00:00", "meta": {"OBJECT_NAME": "COSMOS 2251 DEB", "OBJECT_ID": "1993-036ABA", "EPOCH": "2025-12-22T12:22:54.757056", "MEAN_MOTION": 14.42950692, "ECCENTRICITY": 0.00710542, "INCLINATION": 73.9783, "RA_OF_ASC_NODE": 81.7691, "ARG_OF_PERICENTER": 193.6898, "MEAN_ANOMALY": 166.2334, "EPHEMERIS_TYPE": 0, "CLASSIFICATION_TYPE": "U", "NORAD_CAT_ID": 34797, "ELEMENT_SET_NO": 999, "REV_AT_EPOCH": 87556, "BSTAR": 0.0021692417, "MEAN_MOTION_DOT": 7.461e-05, "MEAN_MOTION_DDOT": 0}, "tle": {"line1": "1 34797U 93036ABA 25356.51591154  .00007461  00000+0  21692-2 0  9992", "line2": "2 34797  73.9783  81.7691 0071054 193.6898 166.2334 14.42950692875560"}}, "geometry": {"type": "Point", "coordinates": [82.77459788618832, 5.733842867006157]}}, {"type": "Feature", "properties": {"norad_id": 34814, "name": "COSMOS 2251 DEB", "group": "cosmos-2251-debris", "lat": 46.23775638666894, "lon": 109.10517808881755, "alt_km": 745.98410807646, "timestamp": "2025-12-22T20:43:46.243334+00:00", "meta": {"OBJECT_NAME": "COSMOS 2251 DEB", "OBJECT_ID": "1993-036ABD", "EPOCH": "2025-12-22T07:27:06.710112", "MEAN_MOTION": 14.36931752, "ECCENTRICITY": 0.00555386, "INCLINATION": 73.8962, "RA_OF_ASC_NODE": 307.6876, "ARG_OF_PERICENTER": 195.2249, "MEAN_ANOMALY": 315.8046, "EPHEMERIS_TYPE": 0, "CLASSIFICATION_TYPE": "U", "NORAD_CAT_ID": 34814, "ELEMENT_SET_NO": 999, "REV_AT_EPOCH": 87470, "BSTAR": 0.00068943391, "MEAN_MOTION_DOT": 2.051e-05, "MEAN_MOTION_DDOT": 0}, "tle": {"line1": "1 34814U 93036ABD 25356.31049433  .00002051  00000+0  68943-3 0  9999", "line2": "2 34814  73.8962 307.6876 0055538 195.2249 315.8046 14.36931752874706"}}, "geometry": {"type": "Point", "coordinates": [109.10517808881755, 46.23775638666894]}}, {"type": "Feature", "properties": {"norad_id": 34815, "name": "COSMOS 2251 DEB", "group": "cosmos-2251-debris", "lat": -2.998982902202352, "lon": -138.9373060040628, "alt_km": 621.8344517580763, "timestamp": "2025-12-22T20:43:46.243343+00:00", "meta": {"OBJECT_NAME": "COSMOS 2251 DEB", "OBJECT_ID": "1993-036ABE", "EPOCH": "2025-12-21T18:45:31.869504", "MEAN_MOTION": 14.78405815, "ECCENTRICITY": 0.00588158, "INCLINATION": 74.044, "RA_OF_ASC_NODE": 224.0458, "ARG_OF_PERICENTER": 291.2324, "MEAN_ANOMALY": 68.2575, "EPHEMERIS_TYPE": 0, "CLASSIFICATION_TYPE": "U", "NORAD_CAT_ID": 34815, "ELEMENT_SET_NO": 999, "REV_AT_EPOCH": 88761, "BSTAR": 0.00055531723, "MEAN_MOTION_DOT": 4.13e-05, "MEAN_MOTION_DDOT": 0}, "tle": {"line1": "1 34815U 93036ABE 25355.78161886  .00004130  00000+0  55532-3 0  9997", "line2": "2 34815  74.0440 224.0458 0058815 291.2324  68.2575 14.78405815887613"}}, "geometry": {"type": "Point", "coordinates": [-138.9373060040628, -2.998982902202352]}}, {"type": "Feature", "properties": {"norad_id": 34816, "name": "COSMOS 2251 DEB", "group": "cosmos-2251-debris", "lat": -71.75690059203211, "lon": 7.879663500467001, "alt_km": 953.8734794634802, "timestamp": "2025-12-22T20:43:46.243353+00:00", "meta": {"OBJECT_NAME": "COSMOS 2251 DEB", "OBJECT_ID": "1993-036ABF", "EPOCH": "2025-12-21T19:28:23.587968", "MEAN_MOTION": 13.58347113, "ECCENTRICITY": 0.03731163, "INCLINATION": 73.8869, "RA_OF_ASC_NODE": 128.3199, "ARG_OF_PERICENTER": 191.2258, "MEAN_ANOMALY": 321.9512, "EPHEMERIS_TYPE": 0, "CLASSIFICATION_TYPE": "U", "NORAD_CAT_ID": 34816, "ELEMENT_SET_NO": 999, "REV_AT_EPOCH": 82906, "BSTAR": 0.0011150272, "MEAN_MOTION_DOT": 1.255e-05, "MEAN_MOTION_DDOT": 0}, "tle": {"line1": "1 34816U 93036ABF 25355.81138412  .00001255  00000+0  11150-2 0  9993", "line2": "2 34816  73.8869 128.3199 0373116 191.2258 321.9512 13.58347113829061"}}, "geometry": {"type": "Point", "coordinates": [7.879663500467001, -71.75690059203211]}}, {"type": "Feature", "properties": {"norad_id": 34818, "name": "COSMOS 2251 DEB", "group": "cosmos-2251-debris", "lat": -24.151764300087436, "lon": 105.69913053283011, "alt_km": 788.3209622372315, "timestamp": "2025-12-22T20:43:46.243364+00:00", "meta": {"OBJECT_NAME": "COSMOS 2251 DEB", "OBJECT_ID": "1993-036ABH", "EPOCH": "2025-12-22T05:26:11.246784", "MEAN_MOTION": 14.36978109, "ECCENTRICITY": 0.00245976, "INCLINATION": 74.0363, "RA_OF_ASC_NODE": 279.4958, "ARG_OF_PERICENTER": 353.0026, "MEAN_ANOMALY": 157.1903, "EPHEMERIS_TYPE": 0, "CLASSIFICATION_TYPE": "U", "NORAD_CAT_ID": 34818, "ELEMENT_SET_NO": 999, "REV_AT_EPOCH": 87506, "BSTAR": 0.00018981942, "MEAN_MOTION_DOT": 5.38e-06, "MEAN_MOTION_DDOT": 0}, "tle": {"line1": "1 34818U 93036ABH 25356.22651906  .00000538  00000+0  18982-3 0  9993", "line2": "2 34818  74.0363 279.4958 0024597 353.0026 157.1903 14.36978109875069"}}, "geometry": {"type": "Point", "coordinates": [105.69913053283011, -24.151764300087436]}}, {"type": "Feature", "properties": {"norad_id": 34819, "name": "COSMOS 2251 DEB", "group": "cosmos-2251-debris", "lat": 27.401938332207177, "lon": 131.7403779899867, "alt_km": 689.3478210226431, "timestamp": "2025-12-22T20:43:46.243374+00:00", "meta": {"OBJECT_NAME": "COSMOS 2251 DEB", "OBJECT_ID": "1993-036ABJ", "EPOCH": "2025-12-20T09:50:49.162272", "MEAN_MOTION": 14.64072467, "ECCENTRICITY": 0.00155371, "INCLINATION": 74.018, "RA_OF_ASC_NODE": 127.9117, "ARG_OF_PERICENTER": 222.8872, "MEAN_ANOMALY": 199.7592, "EPHEMERIS_TYPE": 0, "CLASSIFICATION_TYPE": "U", "NORAD_CAT_ID": 34819, "ELEMENT_SET_NO": 999, "REV_AT_EPOCH": 88341, "BSTAR": 0.001010903, "MEAN_MOTION_DOT": 5.289e-05, "MEAN_MOTION_DDOT": 0}, "tle": {"line1": "1 34819U 93036ABJ 25354.41029123  .00005289  00000+0  10109-2 0  9993", "line2": "2 34819  74.0180 127.9117 0015537 222.8872 199.7592 14.64072467883414"}}, "geometry": {"type": "Point", "coordinates": [131.7403779899867, 27.401938332207177]}}]}